[{"OBJECT_NAME":"JILIN-1 GAOFEN 03D50","OBJECT_ID":"2022-167J","EPOCH":"2026-03-09T22:35:59.947584","MEAN_MOTION":15.32279726,"ECCENTRICITY":0.00065764,"INCLINATION":97.6731,"RA_OF_ASC_NODE":232.9458,"ARG_OF_PERICENTER":101.1473,"MEAN_ANOMALY":259.0507,"EPHEMERIS_TYPE":0,"CLASSIFICATION_TYPE":"U","NORAD_CAT_ID":54690,"ELEMENT_SET_NO":999,"REV_AT_EPOCH":18014,"BSTAR":0.00049467973,"MEAN_MOTION_DOT":0.00015359,"MEAN_MOTION_DDOT":0},{"OBJECT_NAME":"STARLINK-31053","OBJECT_ID":"2023-192U","EPOCH":"2026-03-09T09:03:19.850976","MEAN_MOTION":15.3019163,"ECCENTRICITY":0.00014658,"INCLINATION":53.1606,"RA_OF_ASC_NODE":64.4627,"ARG_OF_PERICENTER":95.422,"MEAN_ANOMALY":264.6948,"EPHEMERIS_TYPE":0,"CLASSIFICATION_TYPE":"U","NORAD_CAT_ID":58549,"ELEMENT_SET_NO":999,"REV_AT_EPOCH":12593,"BSTAR":9.383993e-6,"MEAN_MOTION_DOT":-8.1e-7,"MEAN_MOTION_DDOT":0}]
